{
  "type": "FeatureCollection",
  "features": [
    {
      "type": "Feature",
      "properties": {
        "norad_id": 38001,
        "name": "COSMOS 2251 DEB",
        "group": "cosmos-2251-debris",
        "lat": -43.799062031509294,
        "lon": -15.937197014823372,
        "alt_km": 625.4143012068262,
        "timestamp": "2025-12-04T17:48:40.562971+00:00",
        "meta_object_name": "COSMOS 2251 DEB",
        "meta_object_id": "1993-036BRC",
        "meta_epoch": "2025-12-03T18:07:39.491616",
        "meta_mean_motion": 14.7891192,
        "meta_eccentricity": 0.00652041,
        "meta_inclination": 73.9988,
        "meta_ra_of_asc_node": 150.0344,
        "meta_arg_of_pericenter": 301.1673,
        "meta_mean_anomaly": 73.7814,
        "meta_ephemeris_type": 0,
        "meta_classification_type": "U",
        "meta_norad_cat_id": 38001,
        "meta_element_set_no": 999,
        "meta_rev_at_epoch": 74575,
        "meta_bstar": 0.0010433043,
        "meta_mean_motion_dot": 7.945e-05,
        "meta_mean_motion_ddot": 0,
        "tle_line1": "1 38001U 93036BRC 25337.75531819  .00007945  00000+0  10433-2 0  9999",
        "tle_line2": "2 38001  73.9988 150.0344 0065204 301.1673  73.7814 14.78911920745753"
      },
      "geometry": {
        "type": "Point",
        "coordinates": [
          -15.937197014823372,
          -43.799062031509294
        ]
      }
    },
    {
      "type": "Feature",
      "properties": {
        "norad_id": 38006,
        "name": "COSMOS 2251 DEB",
        "group": "cosmos-2251-debris",
        "lat": -55.0719780259473,
        "lon": 28.598216690584383,
        "alt_km": 721.642548492624,
        "timestamp": "2025-12-04T17:48:40.562982+00:00",
        "meta_object_name": "COSMOS 2251 DEB",
        "meta_object_id": "1993-036BRH",
        "meta_epoch": "2025-12-01T12:00:57.044736",
        "meta_mean_motion": 14.45530874,
        "meta_eccentricity": 0.00745141,
        "meta_inclination": 73.8466,
        "meta_ra_of_asc_node": 59.2312,
        "meta_arg_of_pericenter": 10.3044,
        "meta_mean_anomaly": 349.9618,
        "meta_ephemeris_type": 0,
        "meta_classification_type": "U",
        "meta_norad_cat_id": 38006,
        "meta_element_set_no": 999,
        "meta_rev_at_epoch": 62797,
        "meta_bstar": 0.0024598906,
        "meta_mean_motion_dot": 8.963e-05,
        "meta_mean_motion_ddot": 0,
        "tle_line1": "1 38006U 93036BRH 25335.50066024  .00008963  00000+0  24599-2 0  9995",
        "tle_line2": "2 38006  73.8466  59.2312 0074514  10.3044 349.9618 14.45530874627970"
      },
      "geometry": {
        "type": "Point",
        "coordinates": [
          28.598216690584383,
          -55.0719780259473
        ]
      }
    },
    {
      "type": "Feature",
      "properties": {
        "norad_id": 38054,
        "name": "COSMOS 2251 DEB",
        "group": "cosmos-2251-debris",
        "lat": -52.456403723059225,
        "lon": -103.10642289966576,
        "alt_km": 843.3354237972271,
        "timestamp": "2025-12-04T17:48:40.562995+00:00",
        "meta_object_name": "COSMOS 2251 DEB",
        "meta_object_id": "1993-036BRL",
        "meta_epoch": "2025-12-02T22:19:42.729888",
        "meta_mean_motion": 13.62240867,
        "meta_eccentricity": 0.03612337,
        "meta_inclination": 73.958,
        "meta_ra_of_asc_node": 281.8404,
        "meta_arg_of_pericenter": 261.8039,
        "meta_mean_anomaly": 157.9186,
        "meta_ephemeris_type": 0,
        "meta_classification_type": "U",
        "meta_norad_cat_id": 38054,
        "meta_element_set_no": 999,
        "meta_rev_at_epoch": 67046,
        "meta_bstar": 0.0040803835,
        "meta_mean_motion_dot": 4.866e-05,
        "meta_mean_motion_ddot": 0,
        "tle_line1": "1 38054U 93036BRL 25336.93035567  .00004866  00000+0  40804-2 0  9999",
        "tle_line2": "2 38054  73.9580 281.8404 0361233 261.8039 157.9186 13.62240867670467"
      },
      "geometry": {
        "type": "Point",
        "coordinates": [
          -103.10642289966576,
          -52.456403723059225
        ]
      }
    },
    {
      "type": "Feature",
      "properties": {
        "norad_id": 38055,
        "name": "COSMOS 2251 DEB",
        "group": "cosmos-2251-debris",
        "lat": 2.5740866884364184,
        "lon": 41.720491651023124,
        "alt_km": 687.5487545744836,
        "timestamp": "2025-12-04T17:48:40.563006+00:00",
        "meta_object_name": "COSMOS 2251 DEB",
        "meta_object_id": "1993-036BRM",
        "meta_epoch": "2025-12-03T23:12:11.348928",
        "meta_mean_motion": 14.76808172,
        "meta_eccentricity": 0.00656789,
        "meta_inclination": 74.0095,
        "meta_ra_of_asc_node": 223.9806,
        "meta_arg_of_pericenter": 353.4714,
        "meta_mean_anomaly": 23.4037,
        "meta_ephemeris_type": 0,
        "meta_classification_type": "U",
        "meta_norad_cat_id": 38055,
        "meta_element_set_no": 999,
        "meta_rev_at_epoch": 60553,
        "meta_bstar": 0.001753576,
        "meta_mean_motion_dot": 0.0001274,
        "meta_mean_motion_ddot": 0,
        "tle_line1": "1 38055U 93036BRM 25337.96679802  .00012740  00000+0  17536-2 0  9996",
        "tle_line2": "2 38055  74.0095 223.9806 0065678 353.4714  23.4037 14.76808172605539"
      },
      "geometry": {
        "type": "Point",
        "coordinates": [
          41.720491651023124,
          2.5740866884364184
        ]
      }
    },
    {
      "type": "Feature",
      "properties": {
        "norad_id": 38060,
        "name": "COSMOS 2251 DEB",
        "group": "cosmos-2251-debris",
        "lat": 55.12391196452551,
        "lon": -25.101667325500514,
        "alt_km": 634.7769480721245,
        "timestamp": "2025-12-04T17:48:40.563016+00:00",
        "meta_object_name": "COSMOS 2251 DEB",
        "meta_object_id": "1993-036BRS",
        "meta_epoch": "2025-11-30T16:46:11.567136",
        "meta_mean_motion": 14.63742552,
        "meta_eccentricity": 0.0057629,
        "meta_inclination": 74.0424,
        "meta_ra_of_asc_node": 318.4162,
        "meta_arg_of_pericenter": 67.815,
        "meta_mean_anomaly": 292.9119,
        "meta_ephemeris_type": 0,
        "meta_classification_type": "U",
        "meta_norad_cat_id": 38060,
        "meta_element_set_no": 999,
        "meta_rev_at_epoch": 71788,
        "meta_bstar": 0.00051174098,
        "meta_mean_motion_dot": 2.701e-05,
        "meta_mean_motion_ddot": 0,
        "tle_line1": "1 38060U 93036BRS 25334.69874499  .00002701  00000+0  51174-3 0  9991",
        "tle_line2": "2 38060  74.0424 318.4162 0057629  67.8150 292.9119 14.63742552717884"
      },
      "geometry": {
        "type": "Point",
        "coordinates": [
          -25.101667325500514,
          55.12391196452551
        ]
      }
    },
    {
      "type": "Feature",
      "properties": {
        "norad_id": 38062,
        "name": "COSMOS 2251 DEB",
        "group": "cosmos-2251-debris",
        "lat": -41.98711850748374,
        "lon": 141.57246063938666,
        "alt_km": 598.4811226910342,
        "timestamp": "2025-12-04T17:48:40.563026+00:00",
        "meta_object_name": "COSMOS 2251 DEB",
        "meta_object_id": "1993-036BRU",
        "meta_epoch": "2025-12-02T15:30:52.155072",
        "meta_mean_motion": 14.9400707,
        "meta_eccentricity": 0.0011947,
        "meta_inclination": 74.0086,
        "meta_ra_of_asc_node": 310.8403,
        "meta_arg_of_pericenter": 79.5377,
        "meta_mean_anomaly": 37.1284,
        "meta_ephemeris_type": 0,
        "meta_classification_type": "U",
        "meta_norad_cat_id": 38062,
        "meta_element_set_no": 999,
        "meta_rev_at_epoch": 62879,
        "meta_bstar": 0.0028464492,
        "meta_mean_motion_dot": 0.00030496,
        "meta_mean_motion_ddot": 0,
        "tle_line1": "1 38062U 93036BRU 25336.64643698  .00030496  00000+0  28464-2 0  9992",
        "tle_line2": "2 38062  74.0086 310.8403 0011947  79.5377  37.1284 14.94007070628794"
      },
      "geometry": {
        "type": "Point",
        "coordinates": [
          141.57246063938666,
          -41.98711850748374
        ]
      }
    },
    {
      "type": "Feature",
      "properties": {
        "norad_id": 38064,
        "name": "COSMOS 2251 DEB",
        "group": "cosmos-2251-debris",
        "lat": 16.47746904414228,
        "lon": -45.5417300284968,
        "alt_km": 709.8690374748721,
        "timestamp": "2025-12-04T17:48:40.563036+00:00",
        "meta_object_name": "COSMOS 2251 DEB",
        "meta_object_id": "1993-036BRW",
        "meta_epoch": "2025-12-02T10:38:59.788320",
        "meta_mean_motion": 14.5615683,
        "meta_eccentricity": 0.00475633,
        "meta_inclination": 74.0206,
        "meta_ra_of_asc_node": 143.6816,
        "meta_arg_of_pericenter": 264.8725,
        "meta_mean_anomaly": 94.7009,
        "meta_ephemeris_type": 0,
        "meta_classification_type": "U",
        "meta_norad_cat_id": 38064,
        "meta_element_set_no": 999,
        "meta_rev_at_epoch": 71715,
        "meta_bstar": 0.0011546994,
        "meta_mean_motion_dot": 5.15e-05,
        "meta_mean_motion_ddot": 0,
        "tle_line1": "1 38064U 93036BRW 25336.44374755  .00005150  00000+0  11547-2 0  9990",
        "tle_line2": "2 38064  74.0206 143.6816 0047563 264.8725  94.7009 14.56156830717159"
      },
      "geometry": {
        "type": "Point",
        "coordinates": [
          -45.5417300284968,
          16.47746904414228
        ]
      }
    }
  ]
}